NORAD_CAT_ID,OBJECT_NAME,OBJECT_TYPE,EPOCH,MEAN_MOTION,ECCENTRICITY,INCLINATION,RA_OF_ASC_NODE,ARG_OF_PERICENTER,MEAN_ANOMALY,BSTAR,MEAN_MOTION_DOT,MEAN_MOTION_DDOT,TLE_LINE0,TLE_LINE1,TLE_LINE2,SEMIMAJOR_AXIS,PERIOD,APOGEE,PERIGEE,DECAYED
51135.0,STARLINK-3363,PAYLOAD,2024-05-20 19:52:59,15.08842559,0.0001787,53.218,12.3458,45.0934,315.0203,0.0006979,0.00010837,0.0,0 STARLINK-3363,1 51135U 22005AH  24141.82846550  .00010837  00000-0  69790-3 0  9997,2 51135  53.2180  12.3458 0001787  45.0934 315.0203 15.08842559130530,6917.873,95.437,540.974,538.501,0.0
51135.0,STARLINK-3363,PAYLOAD,2024-05-20 21:28:22,15.0884093,0.0001305,53.2173,12.0473,61.5748,298.5376,0.00039963,6.078e-05,0.0,0 STARLINK-3363,1 51135U 22005AH  24141.89470346  .00006078  00000-0  39963-3 0  9991,2 51135  53.2173  12.0473 0001305  61.5748 298.5376 15.08840930129421,6917.878,95.437,540.645,538.84,0.0
51135.0,STARLINK-3363,PAYLOAD,2024-05-21 21:19:09,15.08849845,0.0001569,53.2175,7.5868,51.6881,308.4252,0.00035745,5.407e-05,0.0,0 STARLINK-3363,1 51135U 22005AH  24142.88830114  .00005407  00000-0  35745-3 0  9993,2 51135  53.2175   7.5868 0001569  51.6881 308.4252 15.08849845130699,6917.85,95.437,540.801,538.63,0.0
51135.0,STARLINK-3363,PAYLOAD,2024-05-22 00:29:55,15.08851911,0.0001495,53.2175,6.9916,54.8812,305.232,0.00037202,5.64e-05,0.0,0 STARLINK-3363,1 51135U 22005AH  24143.02077959  .00005640  00000-0  37202-3 0  9999,2 51135  53.2175   6.9916 0001495  54.8812 305.2320 15.08851911129598,6917.844,95.437,540.743,538.675,0.0
51135.0,STARLINK-3363,PAYLOAD,2024-05-22 21:09:56,15.08848194,0.0001382,53.2178,3.1306,58.7348,301.378,0.00016534,2.345e-05,0.0,0 STARLINK-3363,1 51135U 22005AH  24143.88189866  .00002345  00000-0  16534-3 0  9998,2 51135  53.2178   3.1306 0001382  58.7348 301.3780 15.08848194130841,6917.855,95.437,540.676,538.764,0.0
51135.0,STARLINK-3363,PAYLOAD,2024-05-23 00:20:42,15.08849994,0.0001199,53.2183,2.5339,73.4139,286.6985,0.00018683,2.688e-05,0.0,0 STARLINK-3363,1 51135U 22005AH  24144.01437622  .00002688  00000-0  18683-3 0  9997,2 51135  53.2183   2.5339 0001199  73.4139 286.6985 15.08849994129742,6917.85,95.437,540.544,538.885,0.0
51135.0,STARLINK-3363,PAYLOAD,2024-05-23 19:25:19,15.08846759,0.0001074,53.2185,358.9636,93.2749,266.8366,0.00012081,1.636e-05,0.0,0 STARLINK-3363,1 51135U 22005AH  24144.80925503  .00001636  00000-0  12081-3 0  9992,2 51135  53.2185 358.9636 0001074  93.2749 266.8366 15.08846759129863,6917.86,95.437,540.468,538.982,0.0
51135.0,STARLINK-3363,PAYLOAD,2024-05-24 20:51:32,15.0876717,0.0001242,53.2169,354.2153,86.9329,273.1806,-0.0011757,-0.00018913,0.0,0 STARLINK-3363,1 51135U 22005AH  24145.86913170 -.00018913  00000-0 -11757-2 0  9992,2 51135  53.2169 354.2153 0001242  86.9329 273.1806 15.08767170131141,6918.103,95.442,540.827,539.109,0.0
51135.0,STARLINK-3363,PAYLOAD,2024-05-25 12:45:21,15.08842724,0.0001816,53.2161,351.2375,87.1503,272.9697,0.00011574,1.555e-05,0.0,0 STARLINK-3363,1 51135U 22005AH  24146.53149758  .00001555  00000-0  11574-3 0  9990,2 51135  53.2161 351.2375 0001816  87.1503 272.9697 15.08842724131245,6917.872,95.437,540.993,538.481,0.0
51135.0,STARLINK-3363,PAYLOAD,2024-05-25 14:20:44,15.08829698,0.0001092,53.2159,350.9354,73.8084,286.3028,-0.00013108,-2.373e-05,0.0,0 STARLINK-3363,1 51135U 22005AH  24146.59774257 -.00002373  00000-0 -13108-3 0  9990,2 51135  53.2159 350.9354 0001092  73.8084 286.3028 15.08829698130136,6917.912,95.438,540.532,539.021,0.0
51135.0,STARLINK-3363,PAYLOAD,2024-05-25 20:42:24,15.08666574,0.0001875,53.2179,349.7563,90.4046,269.7161,-0.0025037,-0.00039728,0.0,0 STARLINK-3363,1 51135U 22005AH  24146.86278589 -.00039728  00000-0 -25037-2 0  9994,2 51135  53.2179 349.7563 0001875  90.4046 269.7161 15.08666574131291,6918.411,95.449,541.573,538.978,0.0
51135.0,STARLINK-3363,PAYLOAD,2024-05-26 04:39:13,15.08837542,0.0001207,53.2179,348.2683,58.0598,302.0512,7.5233e-05,9.1e-06,0.0,0 STARLINK-3363,1 51135U 22005AH  24147.19390406  .00000910  00000-0  75233-4 0  9998,2 51135  53.2179 348.2683 0001207  58.0598 302.0512 15.08837542131341,6917.888,95.438,540.588,538.918,0.0
51135.0,STARLINK-3363,PAYLOAD,2024-05-26 14:11:32,15.08838215,9.98e-05,53.2169,346.4758,77.3,282.8103,-3.3454e-05,-8.2e-06,0.0,0 STARLINK-3363,1 51135U 22005AH  24147.59134307 -.00000820  00000-0 -33454-4 0  9999,2 51135  53.2169 346.4758 0000998  77.3000 282.8103 15.08838215130282,6917.886,95.438,540.441,539.06,0.0
51135.0,STARLINK-3363,PAYLOAD,2024-05-26 22:08:27,15.08842282,0.0001059,53.2169,344.9892,78.5719,281.5392,0.00017329,2.471e-05,0.0,0 STARLINK-3363,1 51135U 22005AH  24147.92254186  .00002471  00000-0  17329-3 0  9998,2 51135  53.2169 344.9892 0001059  78.5719 281.5392 15.08842282130334,6917.873,95.437,540.471,539.006,0.0
51135.0,STARLINK-3363,PAYLOAD,2024-05-27 06:05:23,15.08847268,0.0001073,53.217,343.5019,75.6143,284.4969,0.00019862,2.875e-05,0.0,0 STARLINK-3363,1 51135U 22005AH  24148.25373866  .00002875  00000-0  19862-3 0  9994,2 51135  53.2170 343.5019 0001073  75.6143 284.4969 15.08847268131508,6917.858,95.437,540.465,538.981,0.0
51135.0,STARLINK-3363,PAYLOAD,2024-05-27 20:23:51,15.08836589,0.0001092,53.2189,340.825,95.6038,264.5079,0.00019813,2.867e-05,0.0,0 STARLINK-3363,1 51135U 22005AH  24148.84990610  .00002867  00000-0  19813-3 0  9998,2 51135  53.2189 340.8250 0001092  95.6038 264.5079 15.08836589131595,6917.891,95.438,540.511,539.0,0.0
51135.0,STARLINK-3363,PAYLOAD,2024-05-28 05:56:10,15.08841039,0.0001049,53.2191,339.0398,89.8587,270.2526,0.000179,2.562e-05,0.0,0 STARLINK-3363,1 51135U 22005AH  24149.24734439  .00002562  00000-0  17900-3 0  9995,2 51135  53.2191 339.0398 0001049  89.8587 270.2526 15.08841039130537,6917.877,95.437,540.468,539.017,0.0
51135.0,STARLINK-3363,PAYLOAD,2024-05-28 21:50:01,15.08846432,9.85e-05,53.2187,336.0667,84.6555,275.4549,6.5011e-05,7.47e-06,0.0,0 STARLINK-3363,1 51135U 22005AH  24149.90974068  .00000747  00000-0  65011-4 0  9992,2 51135  53.2187 336.0667 0000985  84.6555 275.4549 15.08846432130639,6917.861,95.437,540.407,539.044,0.0
51135.0,STARLINK-3363,PAYLOAD,2024-05-29 12:08:30,15.08841129,9.08e-05,53.2184,333.3917,89.2437,270.8659,5.8464e-05,6.43e-06,0.0,0 STARLINK-3363,1 51135U 22005AH  24150.50590305  .00000643  00000-0  58464-4 0  9997,2 51135  53.2184 333.3917 0000908  89.2437 270.8659 15.08841129131842,6917.877,95.437,540.37,539.114,0.0
51135.0,STARLINK-3363,PAYLOAD,2024-05-29 18:30:02,15.08842732,9.28e-05,53.2184,332.2019,85.9031,274.2067,3.4582e-05,2.63e-06,0.0,0 STARLINK-3363,1 51135U 22005AH  24150.77086184  .00000263  00000-0  34582-4 0  9994,2 51135  53.2184 332.2019 0000928  85.9031 274.2067 15.08842732130760,6917.872,95.437,540.379,539.095,0.0
51135.0,STARLINK-3363,PAYLOAD,2024-05-30 18:20:49,15.08845183,9.35e-05,53.2182,327.7411,87.4998,272.6101,7.7792e-05,9.51e-06,0.0,0 STARLINK-3363,1 51135U 22005AH  24151.76445797  .00000951  00000-0  77792-4 0  9997,2 51135  53.2182 327.7411 0000935  87.4998 272.6101 15.08845183132036,6917.865,95.437,540.376,539.083,0.0
51135.0,STARLINK-3363,PAYLOAD,2024-05-30 21:31:35,15.08847073,9.27e-05,53.2182,327.1461,91.1822,268.9277,9.2382e-05,1.183e-05,0.0,0 STARLINK-3363,1 51135U 22005AH  24151.89693576  .00001183  00000-0  92382-4 0  9991,2 51135  53.2182 327.1461 0000927  91.1822 268.9277 15.08847073130933,6917.859,95.437,540.365,539.082,0.0
51135.0,STARLINK-3363,PAYLOAD,2024-05-31 18:11:36,15.08841983,0.0001019,53.2191,323.2812,95.4264,264.6844,6.3999e-05,7.31e-06,0.0,0 STARLINK-3363,1 51135U 22005AH  24152.75805865  .00000731  00000-0  63999-4 0  9993,2 51135  53.2191 323.2812 0001019  95.4264 264.6844 15.08841983132186,6917.874,95.437,540.444,539.034,0.0
51135.0,STARLINK-3363,PAYLOAD,2024-06-01 14:51:35,15.08901397,0.0001284,53.2187,319.4147,78.09,282.0236,-0.00098942,-0.00016026,0.0,0 STARLINK-3363,1 51135U 22005AH  24153.61916596 -.00016026  00000-0 -98942-3 0  9994,2 51135  53.2187 319.4147 0001284  78.0900 282.0236 15.08901397131192,6917.693,95.434,540.446,538.669,0.0
51135.0,STARLINK-3363,PAYLOAD,2024-06-01 18:02:24,15.08832217,9.59e-05,53.2184,318.823,91.7725,268.3377,1.8778e-05,1.1e-07,0.0,0 STARLINK-3363,1 51135U 22005AH  24153.75166797  .00000011  00000-0  18778-4 0  9994,2 51135  53.2184 318.8230 0000959  91.7725 268.3377 15.08832217132334,6917.904,95.438,540.433,539.106,0.0
51135.0,STARLINK-3363,PAYLOAD,2024-06-02 03:34:42,15.08841515,9.42e-05,53.2186,317.0383,95.0299,265.0801,9.2964e-06,-1.4e-06,0.0,0 STARLINK-3363,1 51135U 22005AH  24154.14910252 -.00000140  00000-0  92964-5 0  9995,2 51135  53.2186 317.0383 0000942  95.0299 265.0801 15.08841515132394,6917.876,95.437,540.392,539.089,0.0
51135.0,STARLINK-3363,PAYLOAD,2024-06-02 11:31:38,15.08833282,0.0001056,53.2189,315.5529,98.7107,261.4005,1.6921e-05,-1.8e-07,0.0,0 STARLINK-3363,1 51135U 22005AH  24154.48030894 -.00000018  00000-0  16921-4 0  9999,2 51135  53.2189 315.5529 0001056  98.7107 261.4005 15.08833282132441,6917.901,95.438,540.496,539.035,0.0
51135.0,STARLINK-3363,PAYLOAD,2024-06-03 03:25:29,15.08841835,0.0001315,53.2188,312.5793,93.0387,267.0756,6.2265e-05,7.03e-06,0.0,0 STARLINK-3363,1 51135U 22005AH  24155.14270487  .00000703  00000-0  62265-4 0  9999,2 51135  53.2188 312.5793 0001315  93.0387 267.0756 15.08841835132545,6917.875,95.437,540.649,538.83,0.0
51135.0,STARLINK-3363,PAYLOAD,2024-06-03 19:19:21,15.08836818,0.0001111,53.2184,309.6042,92.1244,267.9875,4.2539e-05,3.89e-06,0.0,0 STARLINK-3363,1 51135U 22005AH  24155.80511067  .00000389  00000-0  42539-4 0  9996,2 51135  53.2184 309.6042 0001111  92.1244 267.9875 15.08836818132648,6917.89,95.438,540.524,538.987,0.0
51135.0,STARLINK-3363,PAYLOAD,2024-06-04 03:16:16,15.08853953,0.0001517,53.219,308.1173,80.5252,279.5911,0.00019057,2.747e-05,0.0,0 STARLINK-3363,1 51135U 22005AH  24156.13629649  .00002747  00000-0  19057-3 0  9997,2 51135  53.2190 308.1173 0001517  80.5252 279.5911 15.08853953132698,6917.838,95.437,540.752,538.653,0.0
